{
  "type": "FeatureCollection",
  "features": [
    {
      "type": "Feature",
      "properties": {
        "norad_id": 40069,
        "name": "METEOR-M 2",
        "group": "weather",
        "lat": 18.520266216180705,
        "lon": 150.277464335246,
        "alt_km": 818.015290676205,
        "timestamp": "2025-12-15T22:44:28.563256+00:00",
        "meta_object_name": "METEOR-M 2",
        "meta_object_id": "2014-037A",
        "meta_epoch": "2025-12-15T08:28:10.790688",
        "meta_mean_motion": 14.21389094,
        "meta_eccentricity": 0.00051003,
        "meta_inclination": 98.4902,
        "meta_ra_of_asc_node": 326.8375,
        "meta_arg_of_pericenter": 201.2491,
        "meta_mean_anomaly": 158.8476,
        "meta_ephemeris_type": 0,
        "meta_classification_type": "U",
        "meta_norad_cat_id": 40069,
        "meta_element_set_no": 999,
        "meta_rev_at_epoch": 59320,
        "meta_bstar": 0.00028257701,
        "meta_mean_motion_dot": 5.75e-06,
        "meta_mean_motion_ddot": 0,
        "tle_line1": "1 40069U 14037A   25349.35290267  .00000575  00000+0  28258-3 0  9995",
        "tle_line2": "2 40069  98.4902 326.8375 0005100 201.2491 158.8476 14.21389094593201"
      },
      "geometry": {
        "type": "Point",
        "coordinates": [
          150.277464335246,
          18.520266216180705
        ]
      }
    },
    {
      "type": "Feature",
      "properties": {
        "norad_id": 40267,
        "name": "HIMAWARI-8",
        "group": "weather",
        "lat": -0.002157746145017482,
        "lon": -153.3921733748035,
        "alt_km": 35785.01274929151,
        "timestamp": "2025-12-15T22:44:28.563269+00:00",
        "meta_object_name": "HIMAWARI-8",
        "meta_object_id": "2014-060A",
        "meta_epoch": "2025-12-15T07:12:28.727136",
        "meta_mean_motion": 1.00273038,
        "meta_eccentricity": 9.195e-05,
        "meta_inclination": 0.0093,
        "meta_ra_of_asc_node": 232.8099,
        "meta_arg_of_pericenter": 52.2949,
        "meta_mean_anomaly": 47.8848,
        "meta_ephemeris_type": 0,
        "meta_classification_type": "U",
        "meta_norad_cat_id": 40267,
        "meta_element_set_no": 999,
        "meta_rev_at_epoch": 4091,
        "meta_bstar": 0,
        "meta_mean_motion_dot": -2.54e-06,
        "meta_mean_motion_ddot": 0,
        "tle_line1": "1 40267U 14060A   25349.30033249 -.00000254  00000+0  00000+0 0  9997",
        "tle_line2": "2 40267   0.0093 232.8099 0000919  52.2949  47.8848  1.00273038 40913"
      },
      "geometry": {
        "type": "Point",
        "coordinates": [
          -153.3921733748035,
          -0.002157746145017482
        ]
      }
    },
    {
      "type": "Feature",
      "properties": {
        "norad_id": 40367,
        "name": "FENGYUN 2G",
        "group": "weather",
        "lat": 5.177375371419701,
        "lon": 165.36349749976625,
        "alt_km": 35792.23102189046,
        "timestamp": "2025-12-15T22:44:28.563286+00:00",
        "meta_object_name": "FENGYUN 2G",
        "meta_object_id": "2014-090A",
        "meta_epoch": "2025-12-14T19:01:36.473664",
        "meta_mean_motion": 1.00263482,
        "meta_eccentricity": 0.00030138,
        "meta_inclination": 5.1737,
        "meta_ra_of_asc_node": 75.0751,
        "meta_arg_of_pericenter": 200.3872,
        "meta_mean_anomaly": 193.116,
        "meta_ephemeris_type": 0,
        "meta_classification_type": "U",
        "meta_norad_cat_id": 40367,
        "meta_element_set_no": 999,
        "meta_rev_at_epoch": 4015,
        "meta_bstar": 0,
        "meta_mean_motion_dot": -2.83e-06,
        "meta_mean_motion_ddot": 0,
        "tle_line1": "1 40367U 14090A   25348.79278326 -.00000283  00000+0  00000+0 0  9992",
        "tle_line2": "2 40367   5.1737  75.0751 0003013 200.3872 193.1160  1.00263482 40156"
      },
      "geometry": {
        "type": "Point",
        "coordinates": [
          165.36349749976625,
          5.177375371419701
        ]
      }
    },
    {
      "type": "Feature",
      "properties": {
        "norad_id": 40732,
        "name": "METEOSAT-11 (MSG-4)",
        "group": "weather",
        "lat": 0.17679168587554,
        "lon": 75.1885556545376,
        "alt_km": 35789.32452707003,
        "timestamp": "2025-12-15T22:44:28.563299+00:00",
        "meta_object_name": "METEOSAT-11 (MSG-4)",
        "meta_object_id": "2015-034A",
        "meta_epoch": "2025-12-15T06:35:02.313312",
        "meta_mean_motion": 1.00268281,
        "meta_eccentricity": 9.188e-05,
        "meta_inclination": 2.742,
        "meta_ra_of_asc_node": 71.9941,
        "meta_arg_of_pericenter": 130.1153,
        "meta_mean_anomaly": 350.0855,
        "meta_ephemeris_type": 0,
        "meta_classification_type": "U",
        "meta_norad_cat_id": 40732,
        "meta_element_set_no": 999,
        "meta_rev_at_epoch": 537,
        "meta_bstar": 0,
        "meta_mean_motion_dot": 8.1e-07,
        "meta_mean_motion_ddot": 0,
        "tle_line1": "1 40732U 15034A   25349.27433233  .00000081  00000+0  00000+0 0  9996",
        "tle_line2": "2 40732   2.7420  71.9941 0000918 130.1153 350.0855  1.00268281  5375"
      },
      "geometry": {
        "type": "Point",
        "coordinates": [
          75.1885556545376,
          0.17679168587554
        ]
      }
    },
    {
      "type": "Feature",
      "properties": {
        "norad_id": 41105,
        "name": "ELEKTRO-L 2",
        "group": "weather",
        "lat": -2.2394274355201245,
        "lon": 51.614037604316344,
        "alt_km": 35796.822223694944,
        "timestamp": "2025-12-15T22:44:28.563311+00:00",
        "meta_object_name": "ELEKTRO-L 2",
        "meta_object_id": "2015-074A",
        "meta_epoch": "2025-12-15T01:19:59.895840",
        "meta_mean_motion": 1.00272551,
        "meta_eccentricity": 0.00038379,
        "meta_inclination": 6.2318,
        "meta_ra_of_asc_node": 72.8015,
        "meta_arg_of_pericenter": 207.9334,
        "meta_mean_anomaly": 168.7361,
        "meta_ephemeris_type": 0,
        "meta_classification_type": "U",
        "meta_norad_cat_id": 41105,
        "meta_element_set_no": 999,
        "meta_rev_at_epoch": 3666,
        "meta_bstar": 0,
        "meta_mean_motion_dot": -1e-06,
        "meta_mean_motion_ddot": 0,
        "tle_line1": "1 41105U 15074A   25349.05555435 -.00000100  00000+0  00000+0 0  9993",
        "tle_line2": "2 41105   6.2318  72.8015 0003837 207.9334 168.7361  1.00272551 36661"
      },
      "geometry": {
        "type": "Point",
        "coordinates": [
          51.614037604316344,
          -2.2394274355201245
        ]
      }
    },
    {
      "type": "Feature",
      "properties": {
        "norad_id": 41752,
        "name": "INSAT-3DR",
        "group": "weather",
        "lat": 0.08498028163406182,
        "lon": 139.82078629868215,
        "alt_km": 35825.792524335746,
        "timestamp": "2025-12-15T22:44:28.563323+00:00",
        "meta_object_name": "INSAT-3DR",
        "meta_object_id": "2016-054A",
        "meta_epoch": "2025-12-15T01:45:19.969920",
        "meta_mean_motion": 1.00271462,
        "meta_eccentricity": 0.00142342,
        "meta_inclination": 0.0978,
        "meta_ra_of_asc_node": 86.7655,
        "meta_arg_of_pericenter": 184.3346,
        "meta_mean_anomaly": 273.2085,
        "meta_ephemeris_type": 0,
        "meta_classification_type": "U",
        "meta_norad_cat_id": 41752,
        "meta_element_set_no": 999,
        "meta_rev_at_epoch": 3397,
        "meta_bstar": 0,
        "meta_mean_motion_dot": -5.7e-07,
        "meta_mean_motion_ddot": 0,
        "tle_line1": "1 41752U 16054A   25349.07314780 -.00000057  00000+0  00000+0 0  9999",
        "tle_line2": "2 41752   0.0978  86.7655 0014234 184.3346 273.2085  1.00271462 33977"
      },
      "geometry": {
        "type": "Point",
        "coordinates": [
          139.82078629868215,
          0.08498028163406182
        ]
      }
    },
    {
      "type": "Feature",
      "properties": {
        "norad_id": 41836,
        "name": "HIMAWARI-9",
        "group": "weather",
        "lat": 0.013353053357080213,
        "lon": -153.2875670903939,
        "alt_km": 35784.27660460943,
        "timestamp": "2025-12-15T22:44:28.563336+00:00",
        "meta_object_name": "HIMAWARI-9",
        "meta_object_id": "2016-064A",
        "meta_epoch": "2025-12-14T22:38:53.164032",
        "meta_mean_motion": 1.00272988,
        "meta_eccentricity": 0.00010766,
        "meta_inclination": 0.0419,
        "meta_ra_of_asc_node": 96.9426,
        "meta_arg_of_pericenter": 179.7054,
        "meta_mean_anomaly": 287.6965,
        "meta_ephemeris_type": 0,
        "meta_classification_type": "U",
        "meta_norad_cat_id": 41836,
        "meta_element_set_no": 999,
        "meta_rev_at_epoch": 3336,
        "meta_bstar": 0,
        "meta_mean_motion_dot": -2.54e-06,
        "meta_mean_motion_ddot": 0,
        "tle_line1": "1 41836U 16064A   25348.94367088 -.00000254  00000+0  00000+0 0  9996",
        "tle_line2": "2 41836   0.0419  96.9426 0001076 179.7054 287.6965  1.00272988 33366"
      },
      "geometry": {
        "type": "Point",
        "coordinates": [
          -153.2875670903939,
          0.013353053357080213
        ]
      }
    }
  ]
}